SAR-LUPE 2              
1 31797U 07030A   26176.15488686  .00036875  00000+0  63190-3 0  9995
2 31797  98.1045 281.5817 0003013 154.4143 205.7256 15.51130872 58178
SAPPHIRE                
1 39088U 13009C   26176.17907387  .00000101  00000+0  50392-4 0  9999
2 39088  98.4264 355.4451 0010372 220.5045 139.5370 14.35242562697724
PRAETORIAN SDA_602      
1 65565U 25203A   26176.04700508  .00000101  00000+0  80216-4 0  9997
2 65565  81.3029   3.4875 0006214 164.4935 195.6413 13.84278688 39785
PRAETORIAN SDA_603      
1 65566U 25203B   26176.00352674  .00000146  00000+0  12041-3 0  9990
2 65566  81.3033   3.4496 0009770 166.1733 193.9693 13.83906357 39786
PRAETORIAN SDA_604      
1 65567U 25203C   26175.95574075  .00000074  00000+0  56695-4 0  9999
2 65567  81.3053   3.9177 0005699 170.2312 189.8956 13.83048188 39757
PRAETORIAN SDA_605      
1 65568U 25203D   26175.99122921  .00000064  00000+0  47480-4 0  9994
2 65568  81.3019   3.5404 0008512 162.1302 198.0155 13.83434828 39770
PRAETORIAN SDA_606      
1 65569U 25203E   26176.04746808  .00000063  00000+0  46594-4 0  9992
2 65569  81.3052   3.7160 0006393 164.5370 195.5982 13.83198569 39774
PRAETORIAN SDA_607      
1 65570U 25203F   26176.04930943  .00000208  00000+0  17538-3 0  9995
2 65570  81.3043   3.3621 0009122 166.6476 193.4924 13.84285715 39793
PRAETORIAN SDA_608      
1 65571U 25203G   26176.02936111  .00000037  00000+0  22926-4 0  9995
2 65571  81.3006   3.5462 0006206 169.3963 190.7326 13.83817212 39775
PRAETORIAN SDA_609      
1 65572U 25203H   26176.03204720  .00000125  00000+0  10152-3 0  9996
2 65572  81.3050   3.5255 0007115 164.5417 195.5958 13.84210044 39782
PRAETORIAN SDA_610      
1 65573U 25203J   26176.00937318  .00000076  00000+0  58290-4 0  9991
2 65573  81.3007   3.5233 0006973 169.0488 191.0822 13.83768195 39774
PRAETORIAN SDA_611      
1 65574U 25203K   26176.01276605  .00000197  00000+0  16847-3 0  9993
2 65574  81.3010   3.6920 0005772 172.2637 187.8610 13.83310263 39767
PRAETORIAN SDA_612      
1 65575U 25203L   26175.05350047  .00000172  00000+0  14165-3 0  9994
2 65575  81.3031   4.1480 0009518 168.4070 191.7308 13.85040042 39662
PRAETORIAN SDA_613      
1 65576U 25203M   26176.02258800  .00000065  00000+0  48753-4 0  9999
2 65576  81.2999   3.6854 0005988 162.8686 197.2673 13.82765720 39763
PRAETORIAN SDA_614      
1 65577U 25203N   26175.98326414  .00000073  00000+0  53869-4 0  9994
2 65577  81.3013   3.3656 0007461 162.6917 197.4496 13.84777906 39791
PRAETORIAN SDA_615      
1 65578U 25203P   26176.03434310  .00000184  00000+0  15352-3 0  9994
2 65578  81.3026   3.2867 0009328 164.2918 195.8530 13.84436828 39798
PRAETORIAN SDA_616      
1 65579U 25203Q   26176.01221346  .00000276  00000+0  24082-3 0  9998
2 65579  81.3059   3.8425 0005681 170.5667 189.5597 13.83268672 39769
PRAETORIAN SDA_617      
1 65580U 25203R   26176.03448510  .00000044  00000+0  29425-4 0  9996
2 65580  81.3035   3.6522 0007714 163.0402 197.1013 13.83150360 39777
PRAETORIAN SDA_618      
1 65581U 25203S   26175.92681377  .00000150  00000+0  12264-3 0  9994
2 65581  81.3020   3.3136 0010030 166.6726 193.4698 13.84670905 39785
PRAETORIAN SDA_619      
1 65582U 25203T   26176.03989270  .00000175  00000+0  14719-3 0  9995
2 65582  81.3042   3.5181 0008475 164.2433 195.8989 13.83806657 40416
PRAETORIAN SDA_620      
1 65583U 25203U   26175.99663164  .00000139  00000+0  11547-3 0  9997
2 65583  81.3030   3.5802 0007958 160.1670 199.9797 13.83619056 39771
PRAETORIAN SDA_621      
1 65584U 25203V   26175.96938549  .00000072  00000+0  54319-4 0  9998
2 65584  81.3021   3.5203 0007778 158.0026 202.1466 13.83801917 39777
PRAETORIAN SDA_601      
1 65585U 25203W   26176.01591550  .00000082  00000+0  64446-4 0  9996
2 65585  81.3050   3.7824 0005635 173.0894 187.0341 13.83168060 39768
VICTUS HAZE PUMA        
1 69646U 26142A   26175.32184265  .00003543  00000+0  16349-3 0  9998
2 69646  97.4482  72.8649 0021213 302.5100  57.4085 15.20697073   754
